0 FENGYUN 1C DEB
1 31466U 99025BVE 13281.04534501  .00000118  00000-0  56708-4 0  3402
2 31466 099.0723 015.8129 0310126 307.6601 049.6843 14.15269308334434
0 FENGYUN 1C DEB
1 31466U 99025BVE 13284.08526577  .00000122  00000-0  58237-4 0  3418
2 31466 099.0722 018.9097 0309997 299.0528 057.9981 14.15270582334865
0 FENGYUN 1C DEB
1 31466U 99025BVE 13286.48892938  .00000131  00000-0  61136-4 0  3424
2 31466 099.0725 021.3586 0309891 292.2004 064.6759 14.15271974335209
0 FENGYUN 1C DEB
1 31466U 99025BVE 13293.06369352  .00000150  00000-0  67189-4 0  3431
2 31466 099.0719 028.0559 0310035 273.6403 082.9581 14.15275370336137
0 FENGYUN 1C DEB
1 31466U 99025BVE 13295.04319745  .00000182  00000-0  77698-4 0  3444
2 31466 099.0733 030.0750 0309109 267.9246 088.7232 14.15278005336416
